{"type": "FeatureCollection", "features": [ {"type": "Feature", "properties": {"norad_id": 35480, "name": "IRIDIUM 33 DEB", "group": "iridium-33-debris", "lat": 70.95809814719425, "lon": -162.28805080988323, "alt_km": 709.3671811636686, "timestamp": "2025-12-04T19:33:59.985320+00:00", "meta": {"OBJECT_NAME": "IRIDIUM 33 DEB", "OBJECT_ID": "1997-051QA", "EPOCH": "2025-12-01T21:29:27.496896", "MEAN_MOTION": 14.49686619, "ECCENTRICITY": 0.00155495, "INCLINATION": 86.3575, "RA_OF_ASC_NODE": 29.6125, "ARG_OF_PERICENTER": 136.7189, "MEAN_ANOMALY": 223.524, "EPHEMERIS_TYPE": 0, "CLASSIFICATION_TYPE": "U", "NORAD_CAT_ID": 35480, "ELEMENT_SET_NO": 999, "REV_AT_EPOCH": 86874, "BSTAR": 0.000651702, "MEAN_MOTION_DOT": 2.53e-05, "MEAN_MOTION_DDOT": 0}, "tle": {"line1": "1 35480U 97051QA  25335.89545714  .00002530  00000+0  65170-3 0  9994", "line2": "2 35480  86.3575  29.6125 0015549 136.7189 223.5240 14.49686619868745"}}, "geometry": {"type": "Point", "coordinates": [-162.28805080988323, 70.95809814719425]}}, {"type": "Feature", "properties": {"norad_id": 35484, "name": "IRIDIUM 33 DEB", "group": "iridium-33-debris", "lat": -29.203582219390732, "lon": -5.584985675255162, "alt_km": 595.0065993709632, "timestamp": "2025-12-04T19:33:59.985329+00:00", "meta": {"OBJECT_NAME": "IRIDIUM 33 DEB", "OBJECT_ID": "1997-051QE", "EPOCH": "2025-12-01T19:32:14.692416", "MEAN_MOTION": 14.97587734, "ECCENTRICITY": 0.00218288, "INCLINATION": 86.3628, "RA_OF_ASC_NODE": 357.8533, "ARG_OF_PERICENTER": 162.6444, "MEAN_ANOMALY": 197.5538, "EPHEMERIS_TYPE": 0, "CLASSIFICATION_TYPE": "U", "NORAD_CAT_ID": 35484, "ELEMENT_SET_NO": 999, "REV_AT_EPOCH": 61852, "BSTAR": 0.0025030806, "MEAN_MOTION_DOT": 0.00029486, "MEAN_MOTION_DDOT": 0}, "tle": {"line1": "1 35484U 97051QE  25335.81405894  .00029486  00000+0  25031-2 0  9994", "line2": "2 35484  86.3628 357.8533 0021828 162.6444 197.5538 14.97587734618526"}}, "geometry": {"type": "Point", "coordinates": [-5.584985675255162, -29.203582219390732]}}, {"type": "Feature", "properties": {"norad_id": 35488, "name": "IRIDIUM 33 DEB", "group": "iridium-33-debris", "lat": 21.201401899333412, "lon": 123.10155678706799, "alt_km": 621.1202008867112, "timestamp": "2025-12-04T19:33:59.985338+00:00", "meta": {"OBJECT_NAME": "IRIDIUM 33 DEB", "OBJECT_ID": "1997-051QJ", "EPOCH": "2025-12-03T15:19:15.802176", "MEAN_MOTION": 14.8268507, "ECCENTRICITY": 0.00306986, "INCLINATION": 86.3233, "RA_OF_ASC_NODE": 305.0732, "ARG_OF_PERICENTER": 71.607, "MEAN_ANOMALY": 288.8486, "EPHEMERIS_TYPE": 0, "CLASSIFICATION_TYPE": "U", "NORAD_CAT_ID": 35488, "ELEMENT_SET_NO": 999, "REV_AT_EPOCH": 88131, "BSTAR": 0.0020184012, "MEAN_MOTION_DOT": 0.00016455, "MEAN_MOTION_DDOT": 0}, "tle": {"line1": "1 35488U 97051QJ  25337.63837734  .00016455  00000+0  20184-2 0  9998", "line2": "2 35488  86.3233 305.0732 0030698  71.6070 288.8486 14.82685070881318"}}, "geometry": {"type": "Point", "coordinates": [123.10155678706799, 21.201401899333412]}}, {"type": "Feature", "properties": {"norad_id": 35616, "name": "IRIDIUM 33 DEB", "group": "iridium-33-debris", "lat": -7.263925478655735, "lon": -11.083213193441761, "alt_km": 634.4448809039623, "timestamp": "2025-12-04T19:33:59.985347+00:00", "meta": {"OBJECT_NAME": "IRIDIUM 33 DEB", "OBJECT_ID": "1997-051QN", "EPOCH": "2025-12-01T18:38:49.911648", "MEAN_MOTION": 14.81359224, "ECCENTRICITY": 0.00086191, "INCLINATION": 86.3548, "RA_OF_ASC_NODE": 350.7677, "ARG_OF_PERICENTER": 204.4295, "MEAN_ANOMALY": 155.6519, "EPHEMERIS_TYPE": 0, "CLASSIFICATION_TYPE": "U", "NORAD_CAT_ID": 35616, "ELEMENT_SET_NO": 999, "REV_AT_EPOCH": 87412, "BSTAR": 0.0016385024, "MEAN_MOTION_DOT": 0.00012841, "MEAN_MOTION_DDOT": 0}, "tle": {"line1": "1 35616U 97051QN  25335.77696657  .00012841  00000+0  16385-2 0  9994", "line2": "2 35616  86.3548 350.7677 0008619 204.4295 155.6519 14.81359224874125"}}, "geometry": {"type": "Point", "coordinates": [-11.083213193441761, -7.263925478655735]}}, {"type": "Feature", "properties": {"norad_id": 35618, "name": "IRIDIUM 33 DEB", "group": "iridium-33-debris", "lat": -55.49805583160482, "lon": -177.69135174470142, "alt_km": 747.0788514129035, "timestamp": "2025-12-04T19:33:59.985355+00:00", "meta": {"OBJECT_NAME": "IRIDIUM 33 DEB", "OBJECT_ID": "1997-051QQ", "EPOCH": "2025-11-27T19:27:47.606688", "MEAN_MOTION": 14.52216193, "ECCENTRICITY": 0.00308317, "INCLINATION": 86.3414, "RA_OF_ASC_NODE": 0.0275, "ARG_OF_PERICENTER": 70.0508, "MEAN_ANOMALY": 290.4015, "EPHEMERIS_TYPE": 0, "CLASSIFICATION_TYPE": "U", "NORAD_CAT_ID": 35618, "ELEMENT_SET_NO": 999, "REV_AT_EPOCH": 65177, "BSTAR": 0.00046503481, "MEAN_MOTION_DOT": 1.919e-05, "MEAN_MOTION_DDOT": 0}, "tle": {"line1": "1 35618U 97051QQ  25331.81096767  .00001919  00000+0  46503-3 0  9993", "line2": "2 35618  86.3414   0.0275 0030831  70.0508 290.4015 14.52216193651771"}}, "geometry": {"type": "Point", "coordinates": [-177.69135174470142, -55.49805583160482]}}, {"type": "Feature", "properties": {"norad_id": 35620, "name": "IRIDIUM 33 DEB", "group": "iridium-33-debris", "lat": -86.29009980439261, "lon": 117.73700483021494, "alt_km": 674.3166810537659, "timestamp": "2025-12-04T19:33:59.985365+00:00", "meta": {"OBJECT_NAME": "IRIDIUM 33 DEB", "OBJECT_ID": "1997-051QS", "EPOCH": "2025-12-03T22:15:44.389440", "MEAN_MOTION": 14.37533954, "ECCENTRICITY": 0.01447571, "INCLINATION": 86.3881, "RA_OF_ASC_NODE": 221.1686, "ARG_OF_PERICENTER": 287.9324, "MEAN_ANOMALY": 70.6136, "EPHEMERIS_TYPE": 0, "CLASSIFICATION_TYPE": "U", "NORAD_CAT_ID": 35620, "ELEMENT_SET_NO": 999, "REV_AT_EPOCH": 59839, "BSTAR": 0.012608603, "MEAN_MOTION_DOT": 0.00042859, "MEAN_MOTION_DDOT": 0}, "tle": {"line1": "1 35620U 97051QS  25337.92759710  .00042859  00000+0  12609-1 0  9994", "line2": "2 35620  86.3881 221.1686 0144757 287.9324  70.6136 14.37533954598392"}}, "geometry": {"type": "Point", "coordinates": [117.73700483021494, -86.29009980439261]}}, {"type": "Feature", "properties": {"norad_id": 35622, "name": "IRIDIUM 33 DEB", "group": "iridium-33-debris", "lat": -85.81360586566227, "lon": -157.5507175939857, "alt_km": 564.3492075254935, "timestamp": "2025-12-04T19:33:59.985374+00:00", "meta": {"OBJECT_NAME": "IRIDIUM 33 DEB", "OBJECT_ID": "1997-051QU", "EPOCH": "2025-12-03T06:17:03.782976", "MEAN_MOTION": 15.0277191, "ECCENTRICITY": 0.0010538, "INCLINATION": 86.2056, "RA_OF_ASC_NODE": 268.2648, "ARG_OF_PERICENTER": 2.3967, "MEAN_ANOMALY": 150.3951, "EPHEMERIS_TYPE": 0, "CLASSIFICATION_TYPE": "U", "NORAD_CAT_ID": 35622, "ELEMENT_SET_NO": 999, "REV_AT_EPOCH": 87217, "BSTAR": 0.0062141, "MEAN_MOTION_DOT": 0.00084066, "MEAN_MOTION_DDOT": 0}, "tle": {"line1": "1 35622U 97051QU  25337.26184934  .00084066  00000+0  62141-2 0  9996", "line2": "2 35622  86.2056 268.2648 0010538   2.3967 150.3951 15.02771910872179"}}, "geometry": {"type": "Point", "coordinates": [-157.5507175939857, -85.81360586566227]}}, {"type": "Feature", "properties": {"norad_id": 35628, "name": "IRIDIUM 33 DEB", "group": "iridium-33-debris", "lat": 59.36930466803315, "lon": 18.78485415991297, "alt_km": 658.4139845836926, "timestamp": "2025-12-04T19:33:59.985383+00:00", "meta": {"OBJECT_NAME": "IRIDIUM 33 DEB", "OBJECT_ID": "1997-051RA", "EPOCH": "2025-12-02T19:50:02.046048", "MEAN_MOTION": 14.67345428, "ECCENTRICITY": 0.00116325, "INCLINATION": 86.3582, "RA_OF_ASC_NODE": 13.4962, "ARG_OF_PERICENTER": 17.351, "MEAN_ANOMALY": 342.81, "EPHEMERIS_TYPE": 0, "CLASSIFICATION_TYPE": "U", "NORAD_CAT_ID": 35628, "ELEMENT_SET_NO": 999, "REV_AT_EPOCH": 86301, "BSTAR": 0.0016793576, "MEAN_MOTION_DOT": 9.517e-05, "MEAN_MOTION_DDOT": 0}, "tle": {"line1": "1 35628U 97051RA  25336.82641257  .00009517  00000+0  16794-2 0  9990", "line2": "2 35628  86.3582  13.4962 0011632  17.3510 342.8100 14.67345428863013"}}, "geometry": {"type": "Point", "coordinates": [18.78485415991297, 59.36930466803315]}}, {"type": "Feature", "properties": {"norad_id": 35631, "name": "IRIDIUM 33 DEB", "group": "iridium-33-debris", "lat": 8.758424542617743, "lon": -156.172396745973, "alt_km": 725.2094380864737, "timestamp": "2025-12-04T19:33:59.985392+00:00", "meta": {"OBJECT_NAME": "IRIDIUM 33 DEB", "OBJECT_ID": "1997-051RD", "EPOCH": "2025-12-03T09:41:09.224736", "MEAN_MOTION": 14.47269337, "ECCENTRICITY": 0.00180664, "INCLINATION": 86.3684, "RA_OF_ASC_NODE": 24.9956, "ARG_OF_PERICENTER": 146.4986, "MEAN_ANOMALY": 234.0079, "EPHEMERIS_TYPE": 0, "CLASSIFICATION_TYPE": "U", "NORAD_CAT_ID": 35631, "ELEMENT_SET_NO": 999, "REV_AT_EPOCH": 87062, "BSTAR": 0.0005063782, "MEAN_MOTION_DOT": 1.875e-05, "MEAN_MOTION_DDOT": 0}, "tle": {"line1": "1 35631U 97051RD  25337.40357899  .00001875  00000+0  50638-3 0  9990", "line2": "2 35631  86.3684  24.9956 0018066 146.4986 234.0079 14.47269337870623"}}, "geometry": {"type": "Point", "coordinates": [-156.172396745973, 8.758424542617743]}}, {"type": "Feature", "properties": {"norad_id": 35680, "name": "IRIDIUM 33 DEB", "group": "iridium-33-debris", "lat": 5.114961016196334, "lon": -155.31771719472857, "alt_km": 892.9013516103969, "timestamp": "2025-12-04T19:33:59.985400+00:00", "meta": {"OBJECT_NAME": "IRIDIUM 33 DEB", "OBJECT_ID": "1997-051RJ", "EPOCH": "2025-12-01T22:00:09.279648", "MEAN_MOTION": 14.20616647, "ECCENTRICITY": 0.01501261, "INCLINATION": 86.103, "RA_OF_ASC_NODE": 26.3138, "ARG_OF_PERICENTER": 313.2693, "MEAN_ANOMALY": 168.1986, "EPHEMERIS_TYPE": 0, "CLASSIFICATION_TYPE": "U", "NORAD_CAT_ID": 35680, "ELEMENT_SET_NO": 999, "REV_AT_EPOCH": 60547, "BSTAR": 0.0036692718, "MEAN_MOTION_DOT": 8.864e-05, "MEAN_MOTION_DDOT": 0}, "tle": {"line1": "1 35680U 97051RJ  25335.91677407  .00008864  00000+0  36693-2 0  9997", "line2": "2 35680  86.1030  26.3138 0150126 313.2693 168.1986 14.20616647605475"}}, "geometry": {"type": "Point", "coordinates": [-155.31771719472857, 5.114961016196334]}}]}